#aV2023 12  5  0  0  0.00000000     288 DD+AD WGS84 FIT  NGA
## 2291 172800.00000000   300.00000000 60283 0.0000000000000
+   32     1  2  3  4  5  6  7  8  9 10 11 12 13 14 15 16 17
+         18 19 20 21 22 23 24 25 26 27 28 29 30 31 32  0  0
+          0  0  0  0  0  0  0  0  0  0  0  0  0  0  0  0  0
+          0  0  0  0  0  0  0  0  0  0  0  0  0  0  0  0  0
+          0  0  0  0  0  0  0  0  0  0  0  0  0  0  0  0  0
++         2  2  2  2  2  2  2  2  2  2  2  2  2  2  2  2  2
++         2  2  2  2  2  2  2  2  2  2  2  2  2  2  2  0  0
++         0  0  0  0  0  0  0  0  0  0  0  0  0  0  0  0  0
++         0  0  0  0  0  0  0  0  0  0  0  0  0  0  0  0  0
++         0  0  0  0  0  0  0  0  0  0  0  0  0  0  0  0  0
%c cc cc ccc ccc cccc cccc cccc cccc ccccc ccccc ccccc ccccc
%c cc cc ccc ccc cccc cccc cccc cccc ccccc ccccc ccccc ccccc
%f  0.0000000  0.000000000  0.00000000000  0.000000000000000
%f  0.0000000  0.000000000  0.00000000000  0.000000000000000
%i    0    0    0    0      0      0      0      0         0
%i    0    0    0    0      0      0      0      0         0
/*      NGA, ST. LOUIS,MO.                                  
/*   EPHEMERIS COMPUTED FROM 2 DAYS OF DATA                 
/*   EPOCHA v8 SMOOTHER                                     
/*   G2139 IERS2010 SATIGS SATAPC                           
*  2023 12  5 23  5  0.00000000
P  1  13886.857123 -22189.171014  -3607.834859    163.613122                    
V  1   4195.912274  -2058.073156  32190.558972      0.004087                    
P  2  16252.366718 -20430.619888   4730.053500   -519.587679                    
V  2   -531.954665   6005.316294  31288.402799      0.052301                    
P  3  12195.602707 -12283.174812 -20256.290678     33.731410                    
V  3  25132.379390   3614.762748  13137.109648      0.271309                    
P  4   4082.726360 -20393.854000 -16432.867848    231.730478                    
V  4   9572.268170  18706.560592 -20953.587313      0.101901                    
P  5 -23065.789037   6477.746029  11389.051568   -153.018905                    
V  5 -14535.138122  -3019.716931 -27203.881338     -0.014403                    
P  6 -14481.104447  -4488.951708 -21750.547305    486.625929                    
V  6  16306.245134 -22383.296498  -6119.457511     -0.111253                    
P  7    222.233759 -20712.237168  16830.071107     -4.480052                    
V  7  13950.600738 -15436.185658 -20219.439448     -0.097409                    
P  8   9799.904519 -13267.022154  20649.780767   -155.520654                    
V  8  12487.386853  23421.500550   9495.607113     -0.019364                    
P  9  -5841.239077 -24783.560763  -7542.069182     17.895619                    
V  9   6571.509758   7378.643850 -29736.925026      0.115727                    
P 10  20595.065601  11009.955812  13154.020019    -64.157002                    
V 10 -16284.145778   -265.141788  25784.208022     -0.015348                    
P 11 -19747.177686   6243.839714 -16575.263929   -489.038952                    
V 11  11862.745977 -17539.094217 -20759.312394     -0.154935                    
P 12 -13865.923980  11489.322448 -19780.137290   -454.386876                    
V 12 -23948.893566  -5408.352195  13915.234480     -0.040049                    
P 13 -14804.126042   2359.249060  21731.574057    602.620204                    
V 13  -7627.024513 -26983.927958  -2035.651167      0.039515                    
P 14 -17318.665895 -13357.852474  15213.536336    262.764166                    
V 14  19361.912800    394.591918  22245.158953      0.105986                    
P 15  -8420.648046  14472.039724  20084.813434    104.028333                    
V 15 -15404.879177 -21914.310094   9326.521481      0.037853                    
P 16  25948.255500    568.507194   6361.394005   -409.585612                    
V 16   7796.786275   3858.820802 -30152.037273      0.070166                    
P 17 -12743.606278 -22285.583024  -6088.583068    722.413668                    
V 17   -496.008132  -8693.082812  30808.091468     -0.005153                    
P 18    135.645753  19734.351055  17699.754457   -498.447130                    
V 18 -14778.875332  17012.613714 -19047.310954     -0.103178                    
P 19 -15695.381682 -16106.347557 -14593.194845    408.464819                    
V 19  -4027.179448 -17658.533852  23797.334164      0.052236                    
P 20 -26414.965144    896.115996  -1229.576532    398.116662                    
V 20   1411.370888  -3369.240419 -31616.441086     -0.019160                    
P 21  17355.456371 -17904.338360   8121.459468    142.374360                    
V 21  -2305.635607  10158.828809  30053.043761     -0.010455                    
P 22 -21982.640740 -11298.092598   9766.085901     71.275951                    
V 22  12137.708727   -223.817309  28630.736276     -0.068559                    
P 23   8728.107099  14552.259077  20497.057581    110.891099                    
V 23 -25875.818798  -1241.090692  11726.613086      0.067272                    
P 24 -15209.445303  21223.407627   2999.637766   -387.034229                    
V 24  -1250.500963  -5809.995560  31098.850423     -0.083662                    
P 25   -115.057482  15601.767465 -21831.074971    480.310506                    
V 25 -26859.284715  -2422.538903  -1343.139027      0.015286                    
P 26  26310.308777   3473.853994  -3575.050266    211.539256                    
V 26  -4445.807251   3187.756323 -30449.635472     -0.029741                    
P 27  16394.313095   1508.996847  20669.204229    -79.248739                    
V 27  10387.995543  24644.638371  -9501.099432     -0.049327                    
P 28  13700.636278   6832.019013 -21726.760888    -62.672419                    
V 28 -15266.579435  22911.675704  -2428.980365     -0.095493                    
P 29   3129.068025  25078.915779  -8042.148046   -609.963511                    
V 29  -5588.009428  -8799.702110 -29876.427490      0.001800                    
P 30  -8892.094122 -13914.619809  20881.609220   -460.720382                    
V 30  16374.509942 -20709.526739  -7131.831098      0.042131                    
P 31  18478.327993  -1590.530540 -19364.557887   -226.360444                    
V 31 -13675.848079  19805.280263 -14426.723861     -0.003366                    
P 32  15898.193610  19183.876569  -9308.634564   -593.372329                    
V 32   2767.684170  11949.621897  28572.404423     -0.039352                    
EOF
